[{"OBJECT_NAME":"YAOGAN-39 05C","OBJECT_ID":"2023-194C","EPOCH":"2026-03-09T22:48:54.340416","MEAN_MOTION":15.16682362,"ECCENTRICITY":0.00139818,"INCLINATION":34.9933,"RA_OF_ASC_NODE":339.8218,"ARG_OF_PERICENTER":233.6352,"MEAN_ANOMALY":126.3071,"EPHEMERIS_TYPE":0,"CLASSIFICATION_TYPE":"U","NORAD_CAT_ID":58559,"ELEMENT_SET_NO":999,"REV_AT_EPOCH":12504,"BSTAR":0.0003860733,"MEAN_MOTION_DOT":7.728e-5,"MEAN_MOTION_DDOT":0},{"OBJECT_NAME":"SL-3 DEB","OBJECT_ID":"1988-032D","EPOCH":"2026-03-09T21:36:49.536576","MEAN_MOTION":15.21301321,"ECCENTRICITY":0.00302448,"INCLINATION":97.5102,"RA_OF_ASC_NODE":52.3226,"ARG_OF_PERICENTER":221.5268,"MEAN_ANOMALY":138.367,"EPHEMERIS_TYPE":0,"CLASSIFICATION_TYPE":"U","NORAD_CAT_ID":25655,"ELEMENT_SET_NO":999,"REV_AT_EPOCH":5124,"BSTAR":0.00031081119,"MEAN_MOTION_DOT":6.967e-5,"MEAN_MOTION_DDOT":0}]
